{"spkid": "50389511", "covariance": {"labels": ["e", "q", "tp", "node", "peri", "i"], "elements": [{"title": "eccentricity", "value": ".09427508731819949", "units": null, "sigma": 8.42354501786858e-07, "name": "e", "label": "e"}, {"sigma": 1.03297148230284e-06, "name": "q", "units": "au", "title": "perihelion distance", "value": ".876940072853006", "label": "q"}, {"label": "tp", "units": "TDB", "value": "2454634.250476534186", "title": "time of perihelion passage", "name": "tp", "sigma": 0.000114067109268651}, {"value": "31.53137133034312", "title": "longitude of the ascending node", "units": "deg", "sigma": 1.64654902077716e-05, "name": "om", "label": "node"}, {"label": "peri", "name": "w", "sigma": 8.46635089630381e-05, "units": "deg", "title": "argument of perihelion", "value": "236.2136442265448"}, {"units": "deg", "value": "9.573339003810661", "title": "inclination", "sigma": 6.15047631721515e-05, "name": "i", "label": "i"}], "data": [["7.095611066805864E-13", "-8.684058071640412E-13", "-1.853048309842212E-11", "9.762293232329428E-12", "-1.24290265277667E-11", "4.878993293087062E-11"], ["-8.684058071640412E-13", "1.067030083250917E-12", "2.889411687396989E-11", "-1.205299146231442E-11", "1.94689739628993E-11", "-6.007577594530121E-11"], ["-1.853048309842212E-11", "2.889411687396989E-11", "1.301130541690628E-8", "-4.72338925662702E-10", "9.512058044681319E-9", "-2.418579103171234E-9"], ["9.762293232329428E-12", "-1.205299146231442E-11", "-4.72338925662702E-10", "2.711123677822231E-10", "-4.611599494264159E-10", "8.022760918885379E-10"], ["-1.24290265277667E-11", "1.94689739628993E-11", "9.512058044681319E-9", "-4.611599494264159E-10", "7.167909749934437E-9", "-1.851330865367392E-9"], ["4.878993293087062E-11", "-6.007577594530121E-11", "-2.418579103171234E-9", "8.022760918885379E-10", "-1.851330865367392E-9", "3.782835892862446E-9"]], "epoch": "2454493.5"}, "elements": [{"title": "eccentricity", "value": ".09430492875389282", "units": null, "name": "e", "sigma": "8.4787E-7", "label": "e"}, {"name": "a", "sigma": "2.2231E-7", "value": ".9678237435762138", "title": "semi-major axis", "units": "au", "label": "a"}, {"label": "q", "units": "au", "value": ".8765531943919331", "title": "perihelion distance", "name": "q", "sigma": "1.0153E-6"}, {"name": "i", "sigma": "6.1407E-5", "units": "deg", "title": "inclination; angle with respect to x-y ecliptic plane", "value": "9.576450439084752", "label": "i"}, {"title": "longitude of the ascending node", "value": "31.38714107726646", "units": "deg", "name": "om", "sigma": "1.7588E-5", "label": "node"}, {"label": "peri", "units": "deg", "title": "argument of perihelion", "value": "236.3540090836575", "name": "w", "sigma": "8.4672E-5"}, {"label": "M", "name": "ma", "sigma": ".0025698", "title": "mean anomaly", "value": "316.8962510426553", "units": "deg"}, {"name": "tp", "sigma": ".0024968", "units": "TDB", "title": "time of perihelion passage", "value": "2461242.139487868269", "label": "tp"}, {"label": "period", "name": "per", "sigma": ".00011983", "value": "347.7705766941801", "title": "sidereal orbital period", "units": "d"}, {"label": "n", "units": "deg/d", "title": "mean motion", "value": "1.035165204089632", "name": "n", "sigma": "3.5667E-7"}, {"sigma": "2.4328E-7", "name": "ad", "title": "aphelion distance", "value": "1.059094292760494", "units": "au", "label": "Q"}], "epoch": "2461200.5"}